NORAD_CAT_ID,OBJECT_NAME,OBJECT_TYPE,EPOCH,MEAN_MOTION,ECCENTRICITY,INCLINATION,RA_OF_ASC_NODE,ARG_OF_PERICENTER,MEAN_ANOMALY,BSTAR,MEAN_MOTION_DOT,MEAN_MOTION_DDOT,TLE_LINE0,TLE_LINE1,TLE_LINE2,SEMIMAJOR_AXIS,PERIOD,APOGEE,PERIGEE,DECAYED
56485.0,STARLINK-6210,PAYLOAD,2024-06-28 05:21:30,14.98330393,0.0003521,69.9988,246.1689,269.3866,90.689,-2.5516e-05,-3.98e-06,0.0,0 STARLINK-6210,1 56485U 23064AP  24180.22326392 -.00000398  00000-0 -25516-4 0  9992,2 56485  69.9988 246.1689 0003521 269.3866  90.6890 14.98330393 63314,6950.192,96.107,574.504,569.61,0.0
56485.0,STARLINK-6210,PAYLOAD,2024-06-28 13:22:09,14.98345572,0.0003692,69.9987,245.3276,267.8881,92.1855,0.00011114,1.234e-05,0.0,0 STARLINK-6210,1 56485U 23064AP  24180.55704929  .00001234  00000-0  11114-3 0  9990,2 56485  69.9987 245.3276 0003692 267.8881  92.1855 14.98345572 63363,6950.145,96.106,574.576,569.444,0.0
56485.0,STARLINK-6210,PAYLOAD,2024-06-29 11:48:03,14.98323318,0.0003466,69.9988,242.9712,265.5157,94.5606,7.4243e-06,-5e-08,0.0,0 STARLINK-6210,1 56485U 23064AP  24181.49170609 -.00000005  00000-0  74243-5 0  9996,2 56485  69.9988 242.9712 0003466 265.5157  94.5606 14.98323318 63502,6950.214,96.107,574.487,569.67,0.0
56485.0,STARLINK-6210,PAYLOAD,2024-06-29 13:24:11,14.98323133,0.0003463,69.9988,242.8023,266.6632,93.4131,4.6279e-06,-3.8e-07,0.0,0 STARLINK-6210,1 56485U 23064AP  24181.55846677 -.00000038  00000-0  46279-5 0  9992,2 56485  69.9988 242.8023 0003463 266.6632  93.4131 14.98323133 63150,6950.214,96.107,574.486,569.672,0.0
56485.0,STARLINK-6210,PAYLOAD,2024-06-29 15:00:19,14.98323303,0.0003464,69.9988,242.6339,266.6367,93.4396,5.8582e-06,-2.3e-07,0.0,0 STARLINK-6210,1 56485U 23064AP  24181.62522687 -.00000023  00000-0  58582-5 0  9996,2 56485  69.9988 242.6339 0003464 266.6367  93.4396 14.98323303 63167,6950.214,96.107,574.486,569.671,0.0
56485.0,STARLINK-6210,PAYLOAD,2024-06-30 10:13:56,14.98333519,0.00035,69.9984,240.6139,265.7346,94.3413,-5.5714e-05,-7.58e-06,0.0,0 STARLINK-6210,1 56485U 23064AP  24182.42634418 -.00000758  00000-0 -55714-4 0  9990,2 56485  69.9984 240.6139 0003500 265.7346  94.3413 14.98333519 63640,6950.182,96.107,574.48,569.614,0.0
56485.0,STARLINK-6210,PAYLOAD,2024-06-30 13:26:12,14.98335322,0.000348,69.9985,240.2771,269.7797,90.2964,-4.6841e-05,-6.52e-06,0.0,0 STARLINK-6210,1 56485U 23064AP  24182.55986287 -.00000652  00000-0 -46841-4 0  9992,2 56485  69.9985 240.2771 0003480 269.7797  90.2964 14.98335322 63303,6950.176,96.107,574.46,569.623,0.0
56485.0,STARLINK-6210,PAYLOAD,2024-06-30 21:26:52,14.98333758,0.0003648,69.998,239.4345,269.5295,90.5446,-2.2862e-05,-3.66e-06,0.0,0 STARLINK-6210,1 56485U 23064AP  24182.89366201 -.00000366  00000-0 -22862-4 0  9996,2 56485  69.9980 239.4345 0003648 269.5295  90.5446 14.98333758 63356,6950.181,96.107,574.582,569.511,0.0
56485.0,STARLINK-6210,PAYLOAD,2024-07-01 11:52:04,14.98330008,0.0003455,69.9981,237.9195,269.4038,90.6725,0.00011967,1.335e-05,0.0,0 STARLINK-6210,1 56485U 23064AP  24183.49450168  .00001335  00000-0  11967-3 0  9997,2 56485  69.9981 237.9195 0003455 269.4038  90.6725 14.98330008 63809,6950.193,96.107,574.459,569.657,0.0
56485.0,STARLINK-6210,PAYLOAD,2024-07-01 13:28:12,14.98331396,0.0003455,69.9981,237.7513,269.4643,90.6121,0.00013255,1.489e-05,0.0,0 STARLINK-6210,1 56485U 23064AP  24183.56126047  .00001489  00000-0  13255-3 0  9993,2 56485  69.9981 237.7513 0003455 269.4643  90.6121 14.98331396 63455,6950.189,96.107,574.455,569.652,0.0
56485.0,STARLINK-6210,PAYLOAD,2024-07-01 21:28:53,14.98328722,0.0003441,69.9982,236.9094,269.3909,90.6855,6.4247e-05,6.74e-06,0.0,0 STARLINK-6210,1 56485U 23064AP  24183.89506390  .00000674  00000-0  64247-4 0  9995,2 56485  69.9982 236.9094 0003441 269.3909  90.6855 14.98328722 63509,6950.197,96.107,574.453,569.67,0.0
56485.0,STARLINK-6210,PAYLOAD,2024-07-02 13:30:13,14.98333203,0.000345,69.9982,235.2268,270.1959,89.8805,4.6803e-05,4.65e-06,0.0,0 STARLINK-6210,1 56485U 23064AP  24184.56266177  .00000465  00000-0  46803-4 0  9992,2 56485  69.9982 235.2268 0003450 270.1959  89.8805 14.98333203 63964,6950.183,96.107,574.446,569.65,0.0
56485.0,STARLINK-6210,PAYLOAD,2024-07-03 13:32:14,14.98332943,0.0003387,69.9984,232.7019,270.6434,89.4337,-9.534e-07,-1.04e-06,0.0,0 STARLINK-6210,1 56485U 23064AP  24185.56406207 -.00000104  00000-0 -95340-6 0  9997,2 56485  69.9984 232.7019 0003387 270.6434  89.4337 14.98332943 64118,6950.184,96.107,574.403,569.695,0.0
56485.0,STARLINK-6210,PAYLOAD,2024-07-03 19:56:47,14.98332414,0.0003362,69.9985,232.0286,271.0122,89.0651,-2.7898e-06,-1.26e-06,0.0,0 STARLINK-6210,1 56485U 23064AP  24185.83110211 -.00000126  00000-0 -27898-5 0  9990,2 56485  69.9985 232.0286 0003362 271.0122  89.0651 14.98332414 63791,6950.185,96.107,574.387,569.714,0.0
56485.0,STARLINK-6210,PAYLOAD,2024-07-04 13:34:15,14.98333236,0.0003386,69.9983,230.1772,269.7962,90.2809,3.9017e-05,3.73e-06,0.0,0 STARLINK-6210,1 56485U 23064AP  24186.56545940  .00000373  00000-0  39017-4 0  9999,2 56485  69.9983 230.1772 0003386 269.7962  90.2809 14.98333236 63905,6950.183,96.107,574.401,569.695,0.0
56485.0,STARLINK-6210,PAYLOAD,2024-07-04 19:58:48,14.98331873,0.0003382,69.9984,229.5038,270.1284,89.9487,1.719e-05,1.12e-06,0.0,0 STARLINK-6210,1 56485U 23064AP  24186.83250043  .00000112  00000-0  17190-4 0  9995,2 56485  69.9984 229.5038 0003382 270.1284  89.9487 14.98331873 64309,6950.187,96.107,574.403,569.702,0.0
56485.0,STARLINK-6210,PAYLOAD,2024-07-05 12:00:08,14.9833087,0.000336,69.9984,227.8206,268.9607,91.1167,2.8133e-05,2.43e-06,0.0,0 STARLINK-6210,1 56485U 23064AP  24187.50010043  .00000243  00000-0  28133-4 0  9998,2 56485  69.9984 227.8206 0003360 268.9607  91.1167 14.98330870 64044,6950.19,96.107,574.39,569.72,0.0
56485.0,STARLINK-6210,PAYLOAD,2024-07-06 05:37:37,14.98330424,0.0003318,69.9984,225.969,268.2807,91.7972,-4.8439e-06,-1.51e-06,0.0,0 STARLINK-6210,1 56485U 23064AP  24188.23446108 -.00000151  00000-0 -48439-5 0  9996,2 56485  69.9984 225.9690 0003318 268.2807  91.7972 14.98330424 64515,6950.192,96.107,574.363,569.751,0.0
56485.0,STARLINK-6210,PAYLOAD,2024-07-06 12:02:09,14.98328702,0.0003356,69.9984,225.2958,269.3406,90.7368,-1.6878e-05,-2.94e-06,0.0,0 STARLINK-6210,1 56485U 23064AP  24188.50150237 -.00000294  00000-0 -16878-4 0  9990,2 56485  69.9984 225.2958 0003356 269.3406  90.7368 14.98328702 64192,6950.197,96.107,574.394,569.729,0.0
56485.0,STARLINK-6210,PAYLOAD,2024-07-06 20:02:50,14.98328734,0.0003402,69.9983,224.454,270.0278,90.0491,-2.4133e-05,-3.81e-06,0.0,0 STARLINK-6210,1 56485U 23064AP  24188.83530257 -.00000381  00000-0 -24133-4 0  9990,2 56485  69.9983 224.4540 0003402 270.0278  90.0491 14.98328734 64248,6950.197,96.107,574.426,569.697,0.0
56485.0,STARLINK-6210,PAYLOAD,2024-07-07 10:28:02,14.98328946,0.0003476,69.9984,222.9391,270.2094,89.8667,-6.4774e-06,-1.7e-06,0.0,0 STARLINK-6210,1 56485U 23064AP  24189.43614211 -.00000170  00000-0 -64774-5 0  9992,2 56485  69.9984 222.9391 0003476 270.2094  89.8667 14.98328946 64690,6950.196,96.107,574.477,569.645,0.0
56485.0,STARLINK-6210,PAYLOAD,2024-07-08 12:06:11,14.98333165,0.0003489,69.9986,220.2455,269.3631,90.7128,6.2338e-05,6.51e-06,0.0,0 STARLINK-6210,1 56485U 23064AP  24190.50429669  .00000651  00000-0  62338-4 0  9998,2 56485  69.9986 220.2455 0003489 269.3631  90.7128 14.98333165 64854,6950.183,96.107,574.473,569.623,0.0
56485.0,STARLINK-6210,PAYLOAD,2024-07-09 12:08:12,14.98329907,0.0003524,69.9988,217.7209,268.8452,91.2303,1.6139e-05,9.9e-07,0.0,0 STARLINK-6210,1 56485U 23064AP  24191.50569890  .00000099  00000-0  16139-4 0  9994,2 56485  69.9988 217.7209 0003524 268.8452  91.2303 14.98329907 65007,6950.193,96.107,574.507,569.609,0.0
56485.0,STARLINK-6210,PAYLOAD,2024-07-10 12:10:13,14.98330741,0.000349,69.999,215.1962,268.703,91.373,-2.0759e-05,-3.41e-06,0.0,0 STARLINK-6210,1 56485U 23064AP  24192.50709894 -.00000341  00000-0 -20759-4 0  9990,2 56485  69.9990 215.1962 0003490 268.7030  91.3730 14.98330741 65150,6950.191,96.107,574.481,569.63,0.0
56485.0,STARLINK-6210,PAYLOAD,2024-07-11 10:36:06,14.98329174,0.0003507,69.9991,212.8398,269.0505,91.0252,2.1734e-05,1.66e-06,0.0,0 STARLINK-6210,1 56485U 23064AP  24193.44173846  .00000166  00000-0  21734-4 0  9993,2 56485  69.9991 212.8398 0003507 269.0505  91.0252 14.98329174 64937,6950.195,96.107,574.498,569.623,0.0
56485.0,STARLINK-6210,PAYLOAD,2024-07-11 18:36:46,14.98334063,0.00035,69.9991,211.998,270.6598,89.416,-2.6755e-05,-4.12e-06,0.0,0 STARLINK-6210,1 56485U 23064AP  24193.77553631 -.00000412  00000-0 -26755-4 0  9997,2 56485  69.9991 211.9980 0003500 270.6598  89.4160 14.98334063 65345,6950.18,96.107,574.478,569.613,0.0
56485.0,STARLINK-6210,PAYLOAD,2024-07-12 10:38:06,14.98331874,0.0003579,69.9989,210.3147,269.0662,91.0087,5.1966e-05,5.27e-06,0.0,0 STARLINK-6210,1 56485U 23064AP  24194.44313532  .00000527  00000-0  51966-4 0  9993,2 56485  69.9989 210.3147 0003579 269.0662  91.0087 14.98331874 65085,6950.187,96.107,574.54,569.565,0.0
56485.0,STARLINK-6210,PAYLOAD,2024-07-12 18:38:47,14.98330149,0.0003622,69.9988,209.4725,269.3388,90.7356,2.3095e-05,1.82e-06,0.0,0 STARLINK-6210,1 56485U 23064AP  24194.77693683  .00000182  00000-0  23095-4 0  9996,2 56485  69.9988 209.4725 0003622 269.3388  90.7356 14.98330149 65496,6950.192,96.107,574.575,569.54,0.0
56485.0,STARLINK-6210,PAYLOAD,2024-07-13 10:40:08,14.98330009,0.0003625,69.9988,207.7897,269.5482,90.5262,7.9195e-06,1e-08,0.0,0 STARLINK-6210,1 56485U 23064AP  24195.44453745  .00000001  00000-0  79195-5 0  9997,2 56485  69.9988 207.7897 0003625 269.5482  90.5262 14.98330009 65238,6950.193,96.107,574.577,569.538,0.0
56485.0,STARLINK-6210,PAYLOAD,2024-07-13 18:40:48,14.98331211,0.0003626,69.9988,206.9481,269.5322,90.5421,1.725e-05,1.13e-06,0.0,0 STARLINK-6210,1 56485U 23064AP  24195.77833634  .00000113  00000-0  17250-4 0  9999,2 56485  69.9988 206.9481 0003626 269.5322  90.5421 14.98331211 65640,6950.189,96.107,574.574,569.534,0.0
